{
  "type": "FeatureCollection",
  "features": [
    {
      "type": "Feature",
      "properties": {
        "norad_id": 34765,
        "name": "IRIDIUM 33 DEB",
        "group": "iridium-33-debris",
        "lat": 78.99062759863934,
        "lon": -166.1086469761092,
        "alt_km": 754.1317226155406,
        "timestamp": "2025-12-11T22:43:47.654913+00:00",
        "meta_object_name": "IRIDIUM 33 DEB",
        "meta_object_id": "1997-051LJ",
        "meta_epoch": "2025-12-11T14:38:05.129376",
        "meta_mean_motion": 14.40460694,
        "meta_eccentricity": 0.00153204,
        "meta_inclination": 86.3396,
        "meta_ra_of_asc_node": 33.2465,
        "meta_arg_of_pericenter": 215.3687,
        "meta_mean_anomaly": 297.1612,
        "meta_ephemeris_type": 0,
        "meta_classification_type": "U",
        "meta_norad_cat_id": 34765,
        "meta_element_set_no": 999,
        "meta_rev_at_epoch": 87597,
        "meta_bstar": 0.00062745119,
        "meta_mean_motion_dot": 2.016e-05,
        "meta_mean_motion_ddot": 0,
        "tle_line1": "1 34765U 97051LJ  25345.60978159  .00002016  00000+0  62745-3 0  9996",
        "tle_line2": "2 34765  86.3396  33.2465 0015320 215.3687 297.1612 14.40460694875970"
      },
      "geometry": {
        "type": "Point",
        "coordinates": [
          -166.1086469761092,
          78.99062759863934
        ]
      }
    },
    {
      "type": "Feature",
      "properties": {
        "norad_id": 34833,
        "name": "IRIDIUM 33 DEB",
        "group": "iridium-33-debris",
        "lat": 7.530870213725134,
        "lon": -129.14265209584258,
        "alt_km": 715.0473882144306,
        "timestamp": "2025-12-11T22:43:47.654934+00:00",
        "meta_object_name": "IRIDIUM 33 DEB",
        "meta_object_id": "1997-051MH",
        "meta_epoch": "2025-12-10T23:03:13.627296",
        "meta_mean_motion": 14.52360033,
        "meta_eccentricity": 0.00218068,
        "meta_inclination": 86.3925,
        "meta_ra_of_asc_node": 51.7603,
        "meta_arg_of_pericenter": 104.0479,
        "meta_mean_anomaly": 313.4117,
        "meta_ephemeris_type": 0,
        "meta_classification_type": "U",
        "meta_norad_cat_id": 34833,
        "meta_element_set_no": 999,
        "meta_rev_at_epoch": 87689,
        "meta_bstar": 0.0011952605,
        "meta_mean_motion_dot": 4.899e-05,
        "meta_mean_motion_ddot": 0,
        "tle_line1": "1 34833U 97051MH  25344.96057439  .00004899  00000+0  11953-2 0  9994",
        "tle_line2": "2 34833  86.3925  51.7603 0021806 104.0479 313.4117 14.52360033876895"
      },
      "geometry": {
        "type": "Point",
        "coordinates": [
          -129.14265209584258,
          7.530870213725134
        ]
      }
    },
    {
      "type": "Feature",
      "properties": {
        "norad_id": 34870,
        "name": "IRIDIUM 33 DEB",
        "group": "iridium-33-debris",
        "lat": 74.97341325819694,
        "lon": -31.64577439436853,
        "alt_km": 637.496962143463,
        "timestamp": "2025-12-11T22:43:47.654953+00:00",
        "meta_object_name": "IRIDIUM 33 DEB",
        "meta_object_id": "1997-051MQ",
        "meta_epoch": "2025-12-10T16:16:47.325792",
        "meta_mean_motion": 14.76360658,
        "meta_eccentricity": 0.00158788,
        "meta_inclination": 86.3108,
        "meta_ra_of_asc_node": 315.0279,
        "meta_arg_of_pericenter": 190.0668,
        "meta_mean_anomaly": 346.5866,
        "meta_ephemeris_type": 0,
        "meta_classification_type": "U",
        "meta_norad_cat_id": 34870,
        "meta_element_set_no": 999,
        "meta_rev_at_epoch": 88880,
        "meta_bstar": 0.0023954817,
        "meta_mean_motion_dot": 0.00016709,
        "meta_mean_motion_ddot": 0,
        "tle_line1": "1 34870U 97051MQ  25344.67832553  .00016709  00000+0  23955-2 0  9999",
        "tle_line2": "2 34870  86.3108 315.0279 0015878 190.0668 346.5866 14.76360658888802"
      },
      "geometry": {
        "type": "Point",
        "coordinates": [
          -31.64577439436853,
          74.97341325819694
        ]
      }
    },
    {
      "type": "Feature",
      "properties": {
        "norad_id": 34896,
        "name": "IRIDIUM 33 DEB",
        "group": "iridium-33-debris",
        "lat": -53.954164173296206,
        "lon": -38.019432842107115,
        "alt_km": 679.5460903636476,
        "timestamp": "2025-12-11T22:43:47.654972+00:00",
        "meta_object_name": "IRIDIUM 33 DEB",
        "meta_object_id": "1997-051MY",
        "meta_epoch": "2025-12-11T06:54:08.257248",
        "meta_mean_motion": 14.66256347,
        "meta_eccentricity": 0.00241983,
        "meta_inclination": 86.3294,
        "meta_ra_of_asc_node": 327.3367,
        "meta_arg_of_pericenter": 219.9786,
        "meta_mean_anomaly": 206.8534,
        "meta_ephemeris_type": 0,
        "meta_classification_type": "U",
        "meta_norad_cat_id": 34896,
        "meta_element_set_no": 999,
        "meta_rev_at_epoch": 87598,
        "meta_bstar": 0.0017967326,
        "meta_mean_motion_dot": 9.969e-05,
        "meta_mean_motion_ddot": 0,
        "tle_line1": "1 34896U 97051MY  25345.28759557  .00009969  00000+0  17967-2 0  9993",
        "tle_line2": "2 34896  86.3294 327.3367 0024198 219.9786 206.8534 14.66256347875980"
      },
      "geometry": {
        "type": "Point",
        "coordinates": [
          -38.019432842107115,
          -53.954164173296206
        ]
      }
    },
    {
      "type": "Feature",
      "properties": {
        "norad_id": 34926,
        "name": "IRIDIUM 33 DEB",
        "group": "iridium-33-debris",
        "lat": 66.36576471426709,
        "lon": 17.534167656555532,
        "alt_km": 740.1638038079509,
        "timestamp": "2025-12-11T22:43:47.654994+00:00",
        "meta_object_name": "IRIDIUM 33 DEB",
        "meta_object_id": "1997-051NF",
        "meta_epoch": "2025-12-11T01:05:29.819328",
        "meta_mean_motion": 14.54283993,
        "meta_eccentricity": 0.00757067,
        "meta_inclination": 86.1321,
        "meta_ra_of_asc_node": 9.0582,
        "meta_arg_of_pericenter": 298.5987,
        "meta_mean_anomaly": 90.146,
        "meta_ephemeris_type": 0,
        "meta_classification_type": "U",
        "meta_norad_cat_id": 34926,
        "meta_element_set_no": 999,
        "meta_rev_at_epoch": 86432,
        "meta_bstar": 0.0083538341,
        "meta_mean_motion_dot": 0.00036974,
        "meta_mean_motion_ddot": 0,
        "tle_line1": "1 34926U 97051NF  25345.04548402  .00036974  00000+0  83538-2 0  9999",
        "tle_line2": "2 34926  86.1321   9.0582 0075706 298.5987  90.1460 14.54283993864325"
      },
      "geometry": {
        "type": "Point",
        "coordinates": [
          17.534167656555532,
          66.36576471426709
        ]
      }
    },
    {
      "type": "Feature",
      "properties": {
        "norad_id": 34985,
        "name": "IRIDIUM 33 DEB",
        "group": "iridium-33-debris",
        "lat": -46.37089136778128,
        "lon": -118.96374691380082,
        "alt_km": 744.0806802561328,
        "timestamp": "2025-12-11T22:43:47.655010+00:00",
        "meta_object_name": "IRIDIUM 33 DEB",
        "meta_object_id": "1997-051NR",
        "meta_epoch": "2025-12-11T11:45:25.383168",
        "meta_mean_motion": 14.42002723,
        "meta_eccentricity": 0.00206039,
        "meta_inclination": 86.3696,
        "meta_ra_of_asc_node": 57.4124,
        "meta_arg_of_pericenter": 224.0438,
        "meta_mean_anomaly": 150.4182,
        "meta_ephemeris_type": 0,
        "meta_classification_type": "U",
        "meta_norad_cat_id": 34985,
        "meta_element_set_no": 999,
        "meta_rev_at_epoch": 87157,
        "meta_bstar": 0.0012198986,
        "meta_mean_motion_dot": 4.029e-05,
        "meta_mean_motion_ddot": 0,
        "tle_line1": "1 34985U 97051NR  25345.48987712  .00004029  00000+0  12199-2 0  9994",
        "tle_line2": "2 34985  86.3696  57.4124 0020603 224.0438 150.4182 14.42002723871570"
      },
      "geometry": {
        "type": "Point",
        "coordinates": [
          -118.96374691380082,
          -46.37089136778128
        ]
      }
    },
    {
      "type": "Feature",
      "properties": {
        "norad_id": 35051,
        "name": "IRIDIUM 33 DEB",
        "group": "iridium-33-debris",
        "lat": 36.52050351361841,
        "lon": -173.5210520786015,
        "alt_km": 726.1997467939964,
        "timestamp": "2025-12-11T22:43:47.655026+00:00",
        "meta_object_name": "IRIDIUM 33 DEB",
        "meta_object_id": "1997-051NX",
        "meta_epoch": "2025-12-11T08:47:57.045408",
        "meta_mean_motion": 14.47588957,
        "meta_eccentricity": 0.00106566,
        "meta_inclination": 86.3243,
        "meta_ra_of_asc_node": 9.4603,
        "meta_arg_of_pericenter": 94.8899,
        "meta_mean_anomaly": 265.3522,
        "meta_ephemeris_type": 0,
        "meta_classification_type": "U",
        "meta_norad_cat_id": 35051,
        "meta_element_set_no": 999,
        "meta_rev_at_epoch": 86976,
        "meta_bstar": 0.001042299,
        "meta_mean_motion_dot": 3.858e-05,
        "meta_mean_motion_ddot": 0,
        "tle_line1": "1 35051U 97051NX  25345.36663247  .00003858  00000+0  10423-2 0  9997",
        "tle_line2": "2 35051  86.3243   9.4603 0010656  94.8899 265.3522 14.47588957869768"
      },
      "geometry": {
        "type": "Point",
        "coordinates": [
          -173.5210520786015,
          36.52050351361841
        ]
      }
    }
  ]
}